{
  "type": "FeatureCollection",
  "features": [
    {
      "type": "Feature",
      "properties": {
        "norad_id": 41581,
        "name": "INTELSAT 31 (IS-31)",
        "group": "intelsat",
        "lat": 6.047704552157542e-05,
        "lon": 126.24302594107388,
        "alt_km": 35784.71366333681,
        "timestamp": "2025-12-17T09:00:16.812686+00:00",
        "meta_object_name": "INTELSAT 31 (IS-31)",
        "meta_object_id": "2016-035A",
        "meta_epoch": "2025-12-16T09:29:38.777280",
        "meta_mean_motion": 1.00273672,
        "meta_eccentricity": 0.00019671,
        "meta_inclination": 0.0195,
        "meta_ra_of_asc_node": 272.5093,
        "meta_arg_of_pericenter": 297.3574,
        "meta_mean_anomaly": 282.7801,
        "meta_ephemeris_type": 0,
        "meta_classification_type": "U",
        "meta_norad_cat_id": 41581,
        "meta_element_set_no": 999,
        "meta_rev_at_epoch": 3485,
        "meta_bstar": 0,
        "meta_mean_motion_dot": -1.28e-06,
        "meta_mean_motion_ddot": 0,
        "tle_line1": "1 41581U 16035A   25350.39558770 -.00000128  00000+0  00000+0 0  9993",
        "tle_line2": "2 41581   0.0195 272.5093 0001967 297.3574 282.7801  1.00273672 34850"
      },
      "geometry": {
        "type": "Point",
        "coordinates": [
          126.24302594107388,
          6.047704552157542e-05
        ]
      }
    },
    {
      "type": "Feature",
      "properties": {
        "norad_id": 41747,
        "name": "INTELSAT 36 (IS-36)",
        "group": "intelsat",
        "lat": -0.031871616918389536,
        "lon": -70.21394867134917,
        "alt_km": 35782.46062422068,
        "timestamp": "2025-12-17T09:00:16.812697+00:00",
        "meta_object_name": "INTELSAT 36 (IS-36)",
        "meta_object_id": "2016-053A",
        "meta_epoch": "2025-12-16T18:49:07.186944",
        "meta_mean_motion": 1.00271137,
        "meta_eccentricity": 0.00011651,
        "meta_inclination": 0.0113,
        "meta_ra_of_asc_node": 0.976,
        "meta_arg_of_pericenter": 328.2482,
        "meta_mean_anomaly": 107.2108,
        "meta_ephemeris_type": 0,
        "meta_classification_type": "U",
        "meta_norad_cat_id": 41747,
        "meta_element_set_no": 999,
        "meta_rev_at_epoch": 3411,
        "meta_bstar": 0,
        "meta_mean_motion_dot": 0,
        "meta_mean_motion_ddot": 0,
        "tle_line1": "1 41747U 16053A   25350.78411096  .00000000  00000+0  00000+0 0  9997",
        "tle_line2": "2 41747   0.0113   0.9760 0001165 328.2482 107.2108  1.00271137 34114"
      },
      "geometry": {
        "type": "Point",
        "coordinates": [
          -70.21394867134917,
          -0.031871616918389536
        ]
      }
    },
    {
      "type": "Feature",
      "properties": {
        "norad_id": 41945,
        "name": "INTELSAT 32E (IS-32E)",
        "group": "intelsat",
        "lat": 0.0184590228529433,
        "lon": 178.13841201703403,
        "alt_km": 35788.09689135251,
        "timestamp": "2025-12-17T09:00:16.812709+00:00",
        "meta_object_name": "INTELSAT 32E (IS-32E)",
        "meta_object_id": "2017-007B",
        "meta_epoch": "2025-12-16T04:35:28.228416",
        "meta_mean_motion": 1.00271613,
        "meta_eccentricity": 5.242e-05,
        "meta_inclination": 0.0304,
        "meta_ra_of_asc_node": 75.3547,
        "meta_arg_of_pericenter": 315.6867,
        "meta_mean_anomaly": 79.7377,
        "meta_ephemeris_type": 0,
        "meta_classification_type": "U",
        "meta_norad_cat_id": 41945,
        "meta_element_set_no": 999,
        "meta_rev_at_epoch": 3239,
        "meta_bstar": 0,
        "meta_mean_motion_dot": -2.46e-06,
        "meta_mean_motion_ddot": 0,
        "tle_line1": "1 41945U 17007B   25350.19129894 -.00000246  00000+0  00000+0 0  9997",
        "tle_line2": "2 41945   0.0304  75.3547 0000524 315.6867  79.7377  1.00271613 32398"
      },
      "geometry": {
        "type": "Point",
        "coordinates": [
          178.13841201703403,
          0.0184590228529433
        ]
      }
    },
    {
      "type": "Feature",
      "properties": {
        "norad_id": 42818,
        "name": "INTELSAT 35E (IS-35E)",
        "group": "intelsat",
        "lat": -0.012394749681698004,
        "lon": -173.21258293422954,
        "alt_km": 35785.53196614567,
        "timestamp": "2025-12-17T09:00:16.812720+00:00",
        "meta_object_name": "INTELSAT 35E (IS-35E)",
        "meta_object_id": "2017-041A",
        "meta_epoch": "2025-12-16T16:37:04.829664",
        "meta_mean_motion": 1.00270275,
        "meta_eccentricity": 0.00018409,
        "meta_inclination": 0.0251,
        "meta_ra_of_asc_node": 358.2712,
        "meta_arg_of_pericenter": 270.9711,
        "meta_mean_anomaly": 31.1092,
        "meta_ephemeris_type": 0,
        "meta_classification_type": "U",
        "meta_norad_cat_id": 42818,
        "meta_element_set_no": 999,
        "meta_rev_at_epoch": 3098,
        "meta_bstar": 0,
        "meta_mean_motion_dot": 0,
        "meta_mean_motion_ddot": 0,
        "tle_line1": "1 42818U 17041A   25350.69241701  .00000000  00000+0  00000+0 0  9999",
        "tle_line2": "2 42818   0.0251 358.2712 0001840 270.9711  31.1092  1.00270275 30981"
      },
      "geometry": {
        "type": "Point",
        "coordinates": [
          -173.21258293422954,
          -0.012394749681698004
        ]
      }
    },
    {
      "type": "Feature",
      "properties": {
        "norad_id": 42950,
        "name": "INTELSAT 37E (IS-37E)",
        "group": "intelsat",
        "lat": -0.010057474130904982,
        "lon": -156.71640822044023,
        "alt_km": 35778.97187485421,
        "timestamp": "2025-12-17T09:00:16.812732+00:00",
        "meta_object_name": "INTELSAT 37E (IS-37E)",
        "meta_object_id": "2017-059A",
        "meta_epoch": "2025-12-16T16:41:41.887680",
        "meta_mean_motion": 1.00271305,
        "meta_eccentricity": 0.00029525,
        "meta_inclination": 0.0011,
        "meta_ra_of_asc_node": 15.7899,
        "meta_arg_of_pericenter": 241.9436,
        "meta_mean_anomaly": 60.2756,
        "meta_ephemeris_type": 0,
        "meta_classification_type": "U",
        "meta_norad_cat_id": 42950,
        "meta_element_set_no": 999,
        "meta_rev_at_epoch": 3023,
        "meta_bstar": 0,
        "meta_mean_motion_dot": -1.17e-06,
        "meta_mean_motion_ddot": 0,
        "tle_line1": "1 42950U 17059A   25350.69562370 -.00000117  00000+0  00000+0 0  9993",
        "tle_line2": "2 42950   0.0011  15.7899 0002952 241.9436  60.2756  1.00271305 30233"
      },
      "geometry": {
        "type": "Point",
        "coordinates": [
          -156.71640822044023,
          -0.010057474130904982
        ]
      }
    },
    {
      "type": "Feature",
      "properties": {
        "norad_id": 43632,
        "name": "AZERSPACE 2 (IS-38)",
        "group": "intelsat",
        "lat": -0.039670755239339675,
        "lon": -93.57697254914667,
        "alt_km": 35780.892314731835,
        "timestamp": "2025-12-17T09:00:16.812744+00:00",
        "meta_object_name": "AZERSPACE 2 (IS-38)",
        "meta_object_id": "2018-074A",
        "meta_epoch": "2025-12-16T18:42:30.320640",
        "meta_mean_motion": 1.00271781,
        "meta_eccentricity": 0.00012112,
        "meta_inclination": 0.0171,
        "meta_ra_of_asc_node": 333.513,
        "meta_arg_of_pericenter": 296.0191,
        "meta_mean_anomaly": 141.8726,
        "meta_ephemeris_type": 0,
        "meta_classification_type": "U",
        "meta_norad_cat_id": 43632,
        "meta_element_set_no": 999,
        "meta_rev_at_epoch": 2661,
        "meta_bstar": 0,
        "meta_mean_motion_dot": 1.61e-06,
        "meta_mean_motion_ddot": 0,
        "tle_line1": "1 43632U 18074A   25350.77951760  .00000161  00000+0  00000+0 0  9991",
        "tle_line2": "2 43632   0.0171 333.5130 0001211 296.0191 141.8726  1.00271781 26611"
      },
      "geometry": {
        "type": "Point",
        "coordinates": [
          -93.57697254914667,
          -0.039670755239339675
        ]
      }
    },
    {
      "type": "Feature",
      "properties": {
        "norad_id": 43633,
        "name": "HORIZONS-3E",
        "group": "intelsat",
        "lat": 0.021285752011344045,
        "lon": 30.29746653587569,
        "alt_km": 35786.56104004977,
        "timestamp": "2025-12-17T09:00:16.812770+00:00",
        "meta_object_name": "HORIZONS-3E",
        "meta_object_id": "2018-074B",
        "meta_epoch": "2025-12-16T14:09:40.218048",
        "meta_mean_motion": 1.00269891,
        "meta_eccentricity": 8.37e-05,
        "meta_inclination": 0.0492,
        "meta_ra_of_asc_node": 188.1186,
        "meta_arg_of_pericenter": 112.8726,
        "meta_mean_anomaly": 165.8874,
        "meta_ephemeris_type": 0,
        "meta_classification_type": "U",
        "meta_norad_cat_id": 43633,
        "meta_element_set_no": 999,
        "meta_rev_at_epoch": 2651,
        "meta_bstar": 0,
        "meta_mean_motion_dot": -7e-08,
        "meta_mean_motion_ddot": 0,
        "tle_line1": "1 43633U 18074B   25350.59004882 -.00000007  00000+0  00000+0 0  9996",
        "tle_line2": "2 43633   0.0492 188.1186 0000837 112.8726 165.8874  1.00269891 26513"
      },
      "geometry": {
        "type": "Point",
        "coordinates": [
          30.29746653587569,
          0.021285752011344045
        ]
      }
    }
  ]
}